NORAD_CAT_ID,OBJECT_NAME,OBJECT_TYPE,EPOCH,MEAN_MOTION,ECCENTRICITY,INCLINATION,RA_OF_ASC_NODE,ARG_OF_PERICENTER,MEAN_ANOMALY,BSTAR,MEAN_MOTION_DOT,MEAN_MOTION_DDOT,TLE_LINE0,TLE_LINE1,TLE_LINE2,SEMIMAJOR_AXIS,PERIOD,APOGEE,PERIGEE,DECAYED
55648.0,STARLINK-5501,PAYLOAD,2023-05-15 15:15:02,15.69928745,0.0003389,69.9998,265.7113,265.4688,94.6121,3.3816e-05,3.856e-05,0.0,0 STARLINK-5501,1 55648U 23021W   23135.63544595  .00003856  00000-0  33816-4 0  9998,2 55648  69.9998 265.7113 0003389 265.4688  94.6121 15.69928745 14180,6737.238,91.724,361.386,356.82,0.0
55648.0,STARLINK-5501,PAYLOAD,2023-05-15 16:46:47,15.69929452,0.0003402,70.0,265.5325,265.5658,94.5149,3.3465e-05,3.814e-05,0.0,0 STARLINK-5501,1 55648U 23021W   23135.69916233  .00003814  00000-0  33465-4 0  9990,2 55648  70.0000 265.5325 0003402 265.5658  94.5149 15.69929452 14493,6737.236,91.724,361.393,356.809,0.0
55648.0,STARLINK-5501,PAYLOAD,2023-05-16 11:07:49,15.69929297,0.0002741,70.0036,263.3888,260.1541,99.9346,1.9901e-05,2.182e-05,0.0,0 STARLINK-5501,1 55648U 23021W   23136.46376496  .00002182  00000-0  19901-4 0  9993,2 55648  70.0036 263.3888 0002741 260.1541  99.9346 15.69929297 14315,6737.236,91.724,360.948,357.255,0.0
55648.0,STARLINK-5501,PAYLOAD,2023-05-17 10:04:06,15.69925642,0.000247,70.0048,260.7026,236.6301,123.4659,1.0825e-05,1.09e-05,0.0,0 STARLINK-5501,1 55648U 23021W   23137.41951620  .00001090  00000-0  10825-4 0  9990,2 55648  70.0048 260.7026 0002470 236.6301 123.4659 15.69925642 14460,6737.247,91.724,360.776,357.448,0.0
55648.0,STARLINK-5501,PAYLOAD,2023-05-17 17:42:51,15.69928862,0.0003196,70.0006,259.8019,265.6521,94.4309,1.793e-05,1.944e-05,0.0,0 STARLINK-5501,1 55648U 23021W   23137.73809826  .00001944  00000-0  17930-4 0  9997,2 55648  70.0006 259.8019 0003196 265.6521  94.4309 15.69928862 14812,6737.238,91.724,361.256,356.949,0.0
55648.0,STARLINK-5501,PAYLOAD,2023-05-18 01:21:37,15.69919103,0.0002634,70.0015,258.9072,265.4208,94.6686,8.2845e-06,7.84e-06,0.0,0 STARLINK-5501,1 55648U 23021W   23138.05668757  .00000784  00000-0  82845-5 0  9998,2 55648  70.0015 258.9072 0002634 265.4208  94.6686 15.69919103 14567,6737.265,91.724,360.905,357.356,0.0
55648.0,STARLINK-5501,PAYLOAD,2023-05-18 12:03:52,15.69933196,0.0003312,70.0003,257.6511,266.981,93.1007,1.079e-05,1.085e-05,0.0,0 STARLINK-5501,1 55648U 23021W   23138.50269511  .00001085  00000-0  10790-4 0  9997,2 55648  70.0003 257.6511 0003312 266.9810  93.1007 15.69933196 14634,6737.225,91.724,361.321,356.859,0.0
55648.0,STARLINK-5501,PAYLOAD,2023-05-19 09:28:34,15.69683403,0.000405,70.0001,255.1445,261.453,98.6206,-0.00046407,-0.00055108,0.0,0 STARLINK-5501,1 55648U 23021W   23139.39484756 -.00055108  00000-0 -46407-3 0  9995,2 55648  70.0001 255.1445 0004050 261.4530  98.6206 15.69683403 14779,6737.94,91.738,362.534,357.076,0.0
55648.0,STARLINK-5501,PAYLOAD,2023-05-19 17:07:04,15.70295244,0.0006769,70.0016,254.2493,278.0846,81.9582,0.00090646,0.00112055,0.0,0 STARLINK-5501,1 55648U 23021W   23139.71324529  .00112055  00000-0  90646-3 0  9999,2 55648  70.0016 254.2493 0006769 278.0846  81.9582 15.70295244 14823,6736.19,91.703,362.614,353.495,0.0
55648.0,STARLINK-5501,PAYLOAD,2023-05-20 06:00:00,15.67704838,0.000337,70.0015,252.745,266.6071,241.229,-0.0090669,-0.00908314,0.0,0 STARLINK-5501,1 55648U 23021W   23140.25001157 -.00908314  00000-0 -90669-2 0  9996,2 55648  70.0015 252.7450 0003370 266.6071 241.2290 15.67704838 14902,6743.608,91.854,367.745,363.2,0.0
55648.0,STARLINK-5501,PAYLOAD,2023-05-20 20:41:44,15.67448844,0.0003369,69.9999,251.032,268.1518,91.9291,-0.0026058,-0.00274231,0.0,0 STARLINK-5501,1 55648U 23021W   23140.86231556 -.00274231  00000-0 -26058-2 0  9996,2 55648  69.9999 251.0320 0003369 268.1518  91.9291 15.67448844 15307,6744.342,91.869,368.479,363.935,0.0
55648.0,STARLINK-5501,PAYLOAD,2023-05-20 22:00:01,15.66419712,0.0003518,70.001,250.8787,272.7803,34.8838,-0.010186,-0.00963034,0.0,0 STARLINK-5501,1 55648U 23021W   23140.91668981 -.00963034  00000-0 -10186-1 0  9998,2 55648  70.0010 250.8787 0003518 272.7803  34.8838 15.66419712 15003,6747.296,91.929,371.534,366.787,0.0
55648.0,STARLINK-5501,PAYLOAD,2023-05-21 10:29:29,15.66575082,0.0003859,70.0,249.4251,294.8395,65.2397,-0.0034767,-0.00350006,0.0,0 STARLINK-5501,1 55648U 23021W   23141.43715042 -.00350006  00000-0 -34767-2 0  9998,2 55648  70.0000 249.4251 0003859 294.8395  65.2397 15.66575082 15394,6746.85,91.92,371.318,366.111,0.0
55648.0,STARLINK-5501,PAYLOAD,2023-05-21 14:00:01,15.65073119,0.0003689,70.0015,249.0162,275.5322,188.7161,-0.0099087,-0.00893896,0.0,0 STARLINK-5501,1 55648U 23021W   23141.58334491 -.00893896  00000-0 -99087-2 0  9994,2 55648  70.0015 249.0162 0003689 275.5322 188.7161 15.65073119 15117,6751.165,92.008,375.521,370.54,0.0
55648.0,STARLINK-5501,PAYLOAD,2023-05-22 00:00:00,15.64268126,0.0003628,70.001,247.8538,271.3752,19.1724,-0.01044,-0.00910494,0.0,0 STARLINK-5501,1 55648U 23021W   23142.00001157 -.00910494  00000-0 -10440-1 0  9991,2 55648  70.0010 247.8538 0003628 271.3752  19.1724 15.64268126  1300,6753.481,92.056,377.797,372.896,0.0
55648.0,STARLINK-5501,PAYLOAD,2023-05-22 06:00:02,15.63797549,0.0003596,70.0011,247.1572,267.2152,350.582,-0.010753,-0.00919573,0.0,0 STARLINK-5501,1 55648U 23021W   23142.25002315 -.00919573  00000-0 -10753-1 0  9999,2 55648  70.0011 247.1572 0003596 267.2152 350.5820 15.63797549 15213,6754.836,92.084,379.13,374.272,0.0
55648.0,STARLINK-5501,PAYLOAD,2023-05-22 09:30:31,15.64807953,0.000443,69.9996,246.7514,287.6131,72.4578,-0.0042447,-0.0039601,0.0,0 STARLINK-5501,1 55648U 23021W   23142.39620310 -.00396010  00000-0 -42447-2 0  9996,2 55648  69.9996 246.7514 0004430 287.6131  72.4578 15.64807953 15542,6751.928,92.024,376.784,370.802,0.0
55648.0,STARLINK-5501,PAYLOAD,2023-05-22 22:00:00,15.62499631,0.0003546,70.0005,245.3018,273.3197,134.7915,-0.011741,-0.00950902,0.0,0 STARLINK-5501,1 55648U 23021W   23142.91667824 -.00950902  00000-0 -11741-1 0  9993,2 55648  70.0005 245.3018 0003546 273.3197 134.7915 15.62499631  1305,6758.576,92.16,382.838,378.045,0.0
55648.0,STARLINK-5501,PAYLOAD,2023-05-23 06:00:00,15.61847095,0.000335,70.001,244.3756,268.833,213.2868,-0.011745,-0.00929331,0.0,0 STARLINK-5501,1 55648U 23021W   23143.25001157 -.00929331  00000-0 -11745-1 0  9998,2 55648  70.0010 244.3756 0003350 268.8330 213.2868 15.61847095 15372,6760.459,92.199,384.588,380.059,0.0
55648.0,STARLINK-5501,PAYLOAD,2023-05-23 22:00:00,15.60543033,0.0003337,70.0003,242.5256,270.8987,356.908,-0.012705,-0.00953338,0.0,0 STARLINK-5501,1 55648U 23021W   23143.91667824 -.00953338  00000-0 -12705-1 0  9991,2 55648  70.0003 242.5256 0003337 270.8987 356.9080 15.60543033  1308,6764.224,92.276,388.347,383.832,0.0
55648.0,STARLINK-5501,PAYLOAD,2023-05-24 14:00:01,15.59195277,0.0003472,70.0004,240.6794,274.4038,136.0296,-0.012069,-0.0086791,0.0,0 STARLINK-5501,1 55648U 23021W   23144.58335648 -.00867910  00000-0 -12069-1 0  9994,2 55648  70.0004 240.6794 0003472 274.4038 136.0296 15.59195277 15584,6768.122,92.355,392.337,387.637,0.0
55648.0,STARLINK-5501,PAYLOAD,2023-05-24 22:00:00,15.58575262,0.0003274,70.0,239.7576,273.5822,206.883,-0.013388,-0.00933715,0.0,0 STARLINK-5501,1 55648U 23021W   23144.91667824 -.00933715  00000-0 -13388-1 0  9997,2 55648  70.0000 239.7576 0003274 273.5822 206.8830 15.58575262  1308,6769.917,92.392,393.998,389.565,0.0
55648.0,STARLINK-5501,PAYLOAD,2023-05-25 06:00:00,15.57939685,0.0003238,70.0005,238.837,266.9074,282.8667,-0.013822,-0.00940393,0.0,0 STARLINK-5501,1 55648U 23021W   23145.25001157 -.00940393  00000-0 -13822-1 0  9999,2 55648  70.0005 238.8370 0003238 266.9074 282.8667 15.57939685 15680,6771.758,92.43,395.815,391.43,0.0
55648.0,STARLINK-5501,PAYLOAD,2023-05-25 14:00:01,15.57240565,0.0003345,70.0003,237.9171,272.7907,345.5389,-0.013077,-0.00872913,0.0,0 STARLINK-5501,1 55648U 23021W   23145.58334491 -.00872913  00000-0 -13077-1 0  9999,2 55648  70.0003 237.9171 0003345 272.7907 345.5389 15.57240565  1300,6773.784,92.471,397.915,393.384,0.0
55648.0,STARLINK-5501,PAYLOAD,2023-05-26 00:00:02,15.56413577,0.0003407,70.0,236.7681,271.7946,161.1779,-0.013253,-0.00859017,0.0,0 STARLINK-5501,1 55648U 23021W   23146.00002315 -.00859017  00000-0 -13253-1 0  9990,2 55648  70.0000 236.7681 0003407 271.7946 161.1779 15.56413577  1300,6776.184,92.52,400.357,395.74,0.0
55648.0,STARLINK-5501,PAYLOAD,2023-05-26 14:00:01,15.5528615,0.0003319,70.0003,235.1621,276.4084,182.841,-0.014141,-0.00877279,0.0,0 STARLINK-5501,1 55648U 23021W   23146.58334491 -.00877279  00000-0 -14141-1 0  9993,2 55648  70.0003 235.1621 0003319 276.4084 182.8410 15.55286150 15892,6779.458,92.587,403.573,399.073,0.0
55648.0,STARLINK-5501,PAYLOAD,2023-05-26 22:00:01,15.54651963,0.0003212,69.9999,234.2456,273.4653,251.2545,-0.015207,-0.00917586,0.0,0 STARLINK-5501,1 55648U 23021W   23146.91668981 -.00917586  00000-0 -15207-1 0  9994,2 55648  69.9999 234.2456 0003212 273.4653 251.2545 15.54651963  1308,6781.302,92.625,405.345,400.988,0.0
55648.0,STARLINK-5501,PAYLOAD,2023-05-27 06:00:02,15.54027675,0.00033,70.0002,233.3303,267.4707,321.861,-0.015986,-0.00940443,0.0,0 STARLINK-5501,1 55648U 23021W   23147.25002315 -.00940443  00000-0 -15986-1 0  9997,2 55648  70.0002 233.3303 0003300 267.4707 321.8610 15.54027675 15992,6783.118,92.662,407.221,402.744,0.0
55648.0,STARLINK-5501,PAYLOAD,2023-05-27 22:00:00,15.52685733,0.0003491,69.9999,231.5018,270.7131,85.4785,-0.016058,-0.00903309,0.0,0 STARLINK-5501,1 55648U 23021W   23147.91667824 -.00903309  00000-0 -16058-1 0  9993,2 55648  69.9999 231.5018 0003491 270.7131  85.4785 15.52685733  1305,6787.025,92.743,411.26,406.521,0.0
55648.0,STARLINK-5501,PAYLOAD,2023-05-28 06:00:00,15.5204724,0.0003556,70.0004,230.589,268.1515,150.3071,-0.016174,-0.00890347,0.0,0 STARLINK-5501,1 55648U 23021W   23148.25001157 -.00890347  00000-0 -16174-1 0  9998,2 55648  70.0004 230.5890 0003556 268.1515 150.3071 15.52047240  1306,6788.887,92.781,413.166,408.337,0.0
